CCSDS_OMM_VERS = 2.0
CREATION_DATE  = 
ORIGINATOR     = 

OBJECT_NAME    = H-2A R/B
OBJECT_ID      = 2006-002B
CENTER_NAME    = EARTH
REF_FRAME      = TEME
TIME_SYSTEM    = UTC
MEAN_ELEMENT_THEORY = SGP/SGP4

EPOCH          = 2026-03-12T09:07:58.249920
MEAN_MOTION    = 15.16485542
ECCENTRICITY   = .00519365
INCLINATION    = 98.2411
RA_OF_ASC_NODE = 218.6356
ARG_OF_PERICENTER = 231.7636
MEAN_ANOMALY   = 127.8914

EPHEMERIS_TYPE = 0
CLASSIFICATION_TYPE = U
NORAD_CAT_ID   = 28932
ELEMENT_SET_NO = 999
REV_AT_EPOCH   = 9484
BSTAR          = .53302105E-3
MEAN_MOTION_DOT = .10669E-3
MEAN_MOTION_DDOT = 0

CCSDS_OMM_VERS = 2.0
CREATION_DATE  = 
ORIGINATOR     = 

OBJECT_NAME    = RESURS-DK 1
OBJECT_ID      = 2006-021A
CENTER_NAME    = EARTH
REF_FRAME      = TEME
TIME_SYSTEM    = UTC
MEAN_ELEMENT_THEORY = SGP/SGP4

EPOCH          = 2026-03-12T13:51:05.563008
MEAN_MOTION    = 15.12767677
ECCENTRICITY   = .00016003
INCLINATION    = 69.9325
RA_OF_ASC_NODE = 229.5530
ARG_OF_PERICENTER = 160.2150
MEAN_ANOMALY   = 199.9078

EPHEMERIS_TYPE = 0
CLASSIFICATION_TYPE = U
NORAD_CAT_ID   = 29228
ELEMENT_SET_NO = 999
REV_AT_EPOCH   = 8796
BSTAR          = .22547202E-3
MEAN_MOTION_DOT = .3858E-4
MEAN_MOTION_DDOT = 0

CCSDS_OMM_VERS = 2.0
CREATION_DATE  = 
ORIGINATOR     = 

OBJECT_NAME    = CZ-4B R/B
OBJECT_ID      = 2006-046C
CENTER_NAME    = EARTH
REF_FRAME      = TEME
TIME_SYSTEM    = UTC
MEAN_ELEMENT_THEORY = SGP/SGP4

EPOCH          = 2026-03-12T13:51:47.591424
MEAN_MOTION    = 15.16938237
ECCENTRICITY   = .00316936
INCLINATION    = 97.5595
RA_OF_ASC_NODE = 116.4791
ARG_OF_PERICENTER = 256.7785
MEAN_ANOMALY   = 102.9912

EPHEMERIS_TYPE = 0
CLASSIFICATION_TYPE = U
NORAD_CAT_ID   = 29507
ELEMENT_SET_NO = 999
REV_AT_EPOCH   = 6048
BSTAR          = .25208814E-3
MEAN_MOTION_DOT = .4965E-4
MEAN_MOTION_DDOT = 0

CCSDS_OMM_VERS = 2.0
CREATION_DATE  = 
ORIGINATOR     = 

OBJECT_NAME    = CZ-2C R/B
OBJECT_ID      = 2007-010B
CENTER_NAME    = EARTH
REF_FRAME      = TEME
TIME_SYSTEM    = UTC
MEAN_ELEMENT_THEORY = SGP/SGP4

EPOCH          = 2026-03-12T07:58:52.222368
MEAN_MOTION    = 14.20247371
ECCENTRICITY   = .00578723
INCLINATION    = 98.3979
RA_OF_ASC_NODE = 184.4786
ARG_OF_PERICENTER = 286.7615
MEAN_ANOMALY   = 72.7218

EPHEMERIS_TYPE = 0
CLASSIFICATION_TYPE = U
NORAD_CAT_ID   = 31114
ELEMENT_SET_NO = 999
REV_AT_EPOCH   = 98009
BSTAR          = .9756348E-4
MEAN_MOTION_DOT = .17E-5
MEAN_MOTION_DDOT = 0

CCSDS_OMM_VERS = 2.0
CREATION_DATE  = 
ORIGINATOR     = 

OBJECT_NAME    = COSMO-SKYMED 1
OBJECT_ID      = 2007-023A
CENTER_NAME    = EARTH
REF_FRAME      = TEME
TIME_SYSTEM    = UTC
MEAN_ELEMENT_THEORY = SGP/SGP4

EPOCH          = 2026-03-12T14:33:12.375936
MEAN_MOTION    = 14.96561809
ECCENTRICITY   = .00014984
INCLINATION    = 97.8880
RA_OF_ASC_NODE = 262.6614
ARG_OF_PERICENTER = 97.5634
MEAN_ANOMALY   = 262.5757

EPHEMERIS_TYPE = 0
CLASSIFICATION_TYPE = U
NORAD_CAT_ID   = 31598
ELEMENT_SET_NO = 999
REV_AT_EPOCH   = 1534
BSTAR          = .39676301E-3
MEAN_MOTION_DOT = .4456E-4
MEAN_MOTION_DDOT = 0

CCSDS_OMM_VERS = 2.0
CREATION_DATE  = 
ORIGINATOR     = 

OBJECT_NAME    = COSMOS 2428
OBJECT_ID      = 2007-029A
CENTER_NAME    = EARTH
REF_FRAME      = TEME
TIME_SYSTEM    = UTC
MEAN_ELEMENT_THEORY = SGP/SGP4

EPOCH          = 2026-03-12T13:53:37.591584
MEAN_MOTION    = 14.12946745
ECCENTRICITY   = .00092349
INCLINATION    = 70.9436
RA_OF_ASC_NODE = 197.2789
ARG_OF_PERICENTER = 274.2043
MEAN_ANOMALY   = 85.8023

EPHEMERIS_TYPE = 0
CLASSIFICATION_TYPE = U
NORAD_CAT_ID   = 31792
ELEMENT_SET_NO = 999
REV_AT_EPOCH   = 96450
BSTAR          = .4582662E-4
MEAN_MOTION_DOT = .37E-6
MEAN_MOTION_DDOT = 0

CCSDS_OMM_VERS = 2.0
CREATION_DATE  = 
ORIGINATOR     = 

OBJECT_NAME    = SL-16 R/B
OBJECT_ID      = 2007-029B
CENTER_NAME    = EARTH
REF_FRAME      = TEME
TIME_SYSTEM    = UTC
MEAN_ELEMENT_THEORY = SGP/SGP4

EPOCH          = 2026-03-12T12:55:01.784640
MEAN_MOTION    = 14.14834264
ECCENTRICITY   = .0002269
INCLINATION    = 70.9759
RA_OF_ASC_NODE = 166.3976
ARG_OF_PERICENTER = 275.9094
MEAN_ANOMALY   = 171.1937

EPHEMERIS_TYPE = 0
CLASSIFICATION_TYPE = U
NORAD_CAT_ID   = 31793
ELEMENT_SET_NO = 999
REV_AT_EPOCH   = 96577
BSTAR          = .11051572E-3
MEAN_MOTION_DOT = .165E-5
MEAN_MOTION_DDOT = 0

CCSDS_OMM_VERS = 2.0
CREATION_DATE  = 
ORIGINATOR     = 

OBJECT_NAME    = KORONAS-FOTON
OBJECT_ID      = 2009-003A
CENTER_NAME    = EARTH
REF_FRAME      = TEME
TIME_SYSTEM    = UTC
MEAN_ELEMENT_THEORY = SGP/SGP4

EPOCH          = 2026-03-12T13:15:14.694624
MEAN_MOTION    = 15.43383129
ECCENTRICITY   = .00114432
INCLINATION    = 82.4279
RA_OF_ASC_NODE = 272.9013
ARG_OF_PERICENTER = 140.2797
MEAN_ANOMALY   = 219.9290

EPHEMERIS_TYPE = 0
CLASSIFICATION_TYPE = U
NORAD_CAT_ID   = 33504
ELEMENT_SET_NO = 999
REV_AT_EPOCH   = 94618
BSTAR          = .23130077E-3
MEAN_MOTION_DOT = .10385E-3
MEAN_MOTION_DDOT = 0

CCSDS_OMM_VERS = 2.0
CREATION_DATE  = 
ORIGINATOR     = 

OBJECT_NAME    = CZ-2C R/B
OBJECT_ID      = 2011-030B
CENTER_NAME    = EARTH
REF_FRAME      = TEME
TIME_SYSTEM    = UTC
MEAN_ELEMENT_THEORY = SGP/SGP4

EPOCH          = 2026-03-12T11:00:52.236288
MEAN_MOTION    = 14.81235350
ECCENTRICITY   = .00521489
INCLINATION    = 97.8543
RA_OF_ASC_NODE = 28.6665
ARG_OF_PERICENTER = 343.0269
MEAN_ANOMALY   = 130.3441

EPHEMERIS_TYPE = 0
CLASSIFICATION_TYPE = U
NORAD_CAT_ID   = 37731
ELEMENT_SET_NO = 999
REV_AT_EPOCH   = 79050
BSTAR          = .26926762E-3
MEAN_MOTION_DOT = .2092E-4
MEAN_MOTION_DDOT = 0

CCSDS_OMM_VERS = 2.0
CREATION_DATE  = 
ORIGINATOR     = 

OBJECT_NAME    = H-2A R/B
OBJECT_ID      = 2012-025E
CENTER_NAME    = EARTH
REF_FRAME      = TEME
TIME_SYSTEM    = UTC
MEAN_ELEMENT_THEORY = SGP/SGP4

EPOCH          = 2026-03-12T11:20:14.222112
MEAN_MOTION    = 14.95194845
ECCENTRICITY   = .00431861
INCLINATION    = 98.4738
RA_OF_ASC_NODE = 38.7417
ARG_OF_PERICENTER = 305.0697
MEAN_ANOMALY   = 54.6474

EPHEMERIS_TYPE = 0
CLASSIFICATION_TYPE = U
NORAD_CAT_ID   = 38341
ELEMENT_SET_NO = 999
REV_AT_EPOCH   = 74863
BSTAR          = .33397672E-3
MEAN_MOTION_DOT = .3668E-4
MEAN_MOTION_DDOT = 0

CCSDS_OMM_VERS = 2.0
CREATION_DATE  = 
ORIGINATOR     = 

OBJECT_NAME    = SHIJIAN-16 (SJ-16)
OBJECT_ID      = 2013-057A
CENTER_NAME    = EARTH
REF_FRAME      = TEME
TIME_SYSTEM    = UTC
MEAN_ELEMENT_THEORY = SGP/SGP4

EPOCH          = 2026-03-12T15:29:54.850272
MEAN_MOTION    = 14.92362054
ECCENTRICITY   = .00154142
INCLINATION    = 74.9729
RA_OF_ASC_NODE = 179.4924
ARG_OF_PERICENTER = 104.9663
MEAN_ANOMALY   = 255.3233

EPHEMERIS_TYPE = 0
CLASSIFICATION_TYPE = U
NORAD_CAT_ID   = 39358
ELEMENT_SET_NO = 999
REV_AT_EPOCH   = 67194
BSTAR          = .3052327E-3
MEAN_MOTION_DOT = .3102E-4
MEAN_MOTION_DDOT = 0

CCSDS_OMM_VERS = 2.0
CREATION_DATE  = 
ORIGINATOR     = 

OBJECT_NAME    = SL-4 R/B
OBJECT_ID      = 2014-021B
CENTER_NAME    = EARTH
REF_FRAME      = TEME
TIME_SYSTEM    = UTC
MEAN_ELEMENT_THEORY = SGP/SGP4

EPOCH          = 2026-03-11T23:11:23.282880
MEAN_MOTION    = 15.39266038
ECCENTRICITY   = .0097301
INCLINATION    = 51.6083
RA_OF_ASC_NODE = 326.1718
ARG_OF_PERICENTER = 111.2955
MEAN_ANOMALY   = 249.8451

EPHEMERIS_TYPE = 0
CLASSIFICATION_TYPE = U
NORAD_CAT_ID   = 39679
ELEMENT_SET_NO = 999
REV_AT_EPOCH   = 65662
BSTAR          = .33848E-3
MEAN_MOTION_DOT = .15383E-3
MEAN_MOTION_DDOT = 0

