H-2A R/B                
1 28932U 06002B   26071.38053530  .00010669  00000+0  53302-3 0  9992
2 28932  98.2411 218.6356 0051936 231.7636 127.8914 15.16485542 94842
RESURS-DK 1             
1 29228U 06021A   26071.57714772  .00003858  00000+0  22547-3 0  9994
2 29228  69.9325 229.5530 0001600 160.2150 199.9078 15.12767677 87969
CZ-4B R/B               
1 29507U 06046C   26071.57763416  .00004965  00000+0  25209-3 0  9998
2 29507  97.5595 116.4791 0031693 256.7785 102.9912 15.16938237 60483
CZ-2C R/B               
1 31114U 07010B   26071.33254887  .00000170  00000+0  97563-4 0  9995
2 31114  98.3979 184.4786 0057872 286.7615  72.7218 14.20247371980093
COSMO-SKYMED 1          
1 31598U 07023A   26071.60639324  .00004456  00000+0  39676-3 0  9999
2 31598  97.8880 262.6614 0001498  97.5634 262.5757 14.96561809 15347
COSMOS 2428             
1 31792U 07029A   26071.57890731  .00000037  00000+0  45827-4 0  9995
2 31792  70.9436 197.2789 0009234 274.2043  85.8023 14.12946745964509
SL-16 R/B               
1 31793U 07029B   26071.53821510  .00000165  00000+0  11052-3 0  9995
2 31793  70.9759 166.3976 0002269 275.9094 171.1937 14.14834264965775
KORONAS-FOTON           
1 33504U 09003A   26071.55225341  .00010385  00000+0  23130-3 0  9998
2 33504  82.4279 272.9013 0011443 140.2797 219.9290 15.43383129946185
CZ-2C R/B               
1 37731U 11030B   26071.45893792  .00002092  00000+0  26927-3 0  9990
2 37731  97.8543  28.6665 0052148 343.0269 130.3441 14.81235350790508
H-2A R/B                
1 38341U 12025E   26071.47238683  .00003668  00000+0  33398-3 0  9997
2 38341  98.4738  38.7417 0043186 305.0697  54.6474 14.95194845748630
SHIJIAN-16 (SJ-16)      
1 39358U 13057A   26071.64577373  .00003102  00000+0  30523-3 0  9993
2 39358  74.9729 179.4924 0015414 104.9663 255.3233 14.92362054671944
SL-4 R/B                
1 39679U 14021B   26070.96624170  .00015383  00000+0  33848-3 0  9990
2 39679  51.6083 326.1718 0097301 111.2955 249.8451 15.39266038656622
